[{"OBJECT_NAME":"STARLINK-11119 [DTC]","OBJECT_ID":"2024-118J","EPOCH":"2026-03-09T16:04:49.350432","MEAN_MOTION":15.69687834,"ECCENTRICITY":0.00010671,"INCLINATION":53.1584,"RA_OF_ASC_NODE":221.1036,"ARG_OF_PERICENTER":79.5381,"MEAN_ANOMALY":280.5758,"EPHEMERIS_TYPE":0,"CLASSIFICATION_TYPE":"U","NORAD_CAT_ID":60121,"ELEMENT_SET_NO":999,"REV_AT_EPOCH":9799,"BSTAR":-3.4079719e-5,"MEAN_MOTION_DOT":-4.711e-5,"MEAN_MOTION_DDOT":0},{"OBJECT_NAME":"ISS OBJECT XT","OBJECT_ID":"1998-067XT","EPOCH":"2026-03-09T23:09:29.137248","MEAN_MOTION":15.69333449,"ECCENTRICITY":0.00047012,"INCLINATION":51.6253,"RA_OF_ASC_NODE":64.2319,"ARG_OF_PERICENTER":78.1098,"MEAN_ANOMALY":282.0426,"EPHEMERIS_TYPE":0,"CLASSIFICATION_TYPE":"U","NORAD_CAT_ID":66907,"ELEMENT_SET_NO":999,"REV_AT_EPOCH":1522,"BSTAR":0.0013746382,"MEAN_MOTION_DOT":0.00167047,"MEAN_MOTION_DDOT":0}]
